STARLINK-31276          
1 59075U 24041B   26068.08359300 -.00001285  00000+0 -37168-4 0  9993
2 59075  42.9993 313.7188 0001800 259.0315 101.0335 15.27576361114236
PHISAT 2                
1 60470U 24149C   26068.78834181  .00008925  00000+0  31421-3 0  9996
2 60470  97.3806 148.6498 0001175 168.6230 191.5037 15.29548631 86792
